OBJECT_NAME,OBJECT_ID,EPOCH,MEAN_MOTION,ECCENTRICITY,INCLINATION,RA_OF_ASC_NODE,ARG_OF_PERICENTER,MEAN_ANOMALY,EPHEMERIS_TYPE,CLASSIFICATION_TYPE,NORAD_CAT_ID,ELEMENT_SET_NO,REV_AT_EPOCH,BSTAR,MEAN_MOTION_DOT,MEAN_MOTION_DDOT
POLYITAN-1,2014-033AJ,2026-07-12T13:29:41.291808,15.34156417,.0008123,98.0940,222.2395,71.5850,288.6273,0,U,40042,999,65748,.38349E-3,.12606E-3,0
TIGRISAT,2014-033AK,2026-07-13T09:22:47.068320,14.85246548,.0048774,97.7860,343.8076,350.2970,9.7298,0,U,40043,999,64951,.10106E-3,.829E-5,0
AEROCUBE 6A,2014-033AM,2026-07-13T09:42:26.746272,14.98332074,.003645,97.7236,1.0799,287.1709,72.5524,0,U,40045,999,65054,.26419E-3,.3127E-4,0
AEROCUBE 6B,2014-033AN,2026-07-13T10:45:07.614720,14.99788967,.0038008,97.7196,0.9676,276.2664,83.4230,0,U,40046,999,65069,.21843E-3,.2679E-4,0
CANX-4,2014-034C,2026-07-13T02:10:53.542272,14.81309217,.00114702,98.3087,70.3511,290.4106,69.5873,0,U,40055,999,64836,.67044927E-4,.466E-5,0
CANX-5,2014-034D,2026-07-13T02:08:12.033024,14.81326588,.0011468,98.3089,70.3942,290.6384,69.3597,0,U,40056,999,63917,.6744247E-4,.469E-5,0
UKUBE-1,2014-037F,2026-07-13T11:26:38.780736,15.13935151,.0003327,98.4240,200.5192,92.0376,268.1233,0,U,40074,999,65253,.25133E-3,.4476E-4,0
BRITE-PL2 (HEWELIUSZ),2014-049B,2026-07-13T00:19:59.957760,14.94683999,.00145416,97.9119,306.2169,29.3912,330.8123,0,U,40119,999,64530,.79659874E-4,.806E-5,0
AEROCUBE 5C,2015-058B,2026-07-13T07:41:28.853376,14.91569281,.013221,64.7652,181.2824,53.1402,308.1745,0,U,40965,999,36955,.17187E-3,.1862E-4,0
AEROCUBE 7,2015-058C,2026-07-13T07:24:19.661760,14.95903007,.0121901,64.7607,162.9861,51.4720,309.7246,0,U,40966,999,36986,.24558E-3,.3017E-4,0
FOX-1A (AO-85),2015-058D,2026-07-13T09:02:14.152416,14.91081725,.0132208,64.7723,197.5870,46.4986,314.7024,0,U,40967,999,11747,.15942E-3,.169E-4,0
SINOD-D 1,2015-058E,2026-07-13T08:24:22.489056,14.96077409,.0120896,64.7731,176.9685,42.8594,318.1865,0,U,40968,999,12057,.23839E-3,.293E-4,0
SNAP-3 ALICE,2015-058G,2026-07-13T04:58:58.626336,15.66833547,.00243766,64.7493,13.5320,349.7617,10.3032,0,U,40970,999,12095,.87975367E-3,.95871E-3,0
LMRST-SAT,2015-058H,2026-07-13T09:44:10.061664,14.90697105,.0133768,64.7731,193.8846,48.4907,312.7591,0,U,40971,999,11746,.15506E-3,.1627E-4,0
SNAP-3 EDDIE,2015-058J,2026-07-13T10:22:05.810016,15.68236979,.0025378,64.7400,3.2732,352.1710,7.9040,0,U,40972,999,12313,.90785E-3,.105051E-2,0
PROPCUBE 3,2015-058K,2026-07-13T09:02:17.618784,14.94407083,.0125602,64.7667,170.6999,49.6933,311.5075,0,U,40973,999,11871,.20685E-3,.2428E-4,0
BISONSAT,2015-058L,2026-07-13T03:31:35.827680,15.16897055,.00818574,64.7589,89.6667,36.7421,323.9275,0,U,40974,999,11955,.41900735E-3,.8837E-4,0
SNAP-3 JIMI,2015-058M,2026-07-13T06:45:48.237984,15.02592193,.0107717,64.7643,137.1920,45.0565,315.9226,0,U,40975,999,11814,.30462E-3,.4425E-4,0
PROPCUBE 1 (FLORA),2015-058N,2026-07-13T10:50:38.781600,14.89322709,.0132351,64.7718,213.8276,50.7565,310.5203,0,U,40976,999,12017,.12866E-3,.1262E-4,0
SINOD-D 3,2015-058P,2026-07-13T09:53:56.696064,14.94165190,.0120915,64.7700,193.9150,47.8300,313.3005,0,U,40977,999,11867,.20339E-3,.2341E-4,0
RAVAN,2016-067B,2026-07-13T03:40:57.360288,15.57315898,.00019858,97.9849,86.7743,235.0809,125.0258,0,U,41849,999,53173,.52677076E-3,.38477E-3,0
CELTEE 1,2016-067C,2026-07-13T01:57:55.869696,15.19929338,.0002271,98.0642,62.4153,112.8115,247.3358,0,U,41850,999,52981,.14771595E-3,.3097E-4,0
OPTICUBE 04,2016-067D,2026-07-12T12:43:38.944704,15.09765361,.00163612,98.0676,47.1347,36.5014,323.7325,0,U,41851,999,52899,.87500462E-4,.1344E-4,0
AEROCUBE 8D,2016-067E,2026-07-12T21:12:47.115360,15.24750647,.00047066,98.0651,66.0118,62.5706,297.6008,0,U,41852,999,52998,.20042685E-3,.4883E-4,0
AEROCUBE 8C,2016-067F,2026-07-12T13:50:13.043904,15.25001010,.0004548,98.0525,62.8765,351.7275,8.3885,0,U,41853,999,52993,.1879E-3,.4607E-4,0
CORVUS BC2,2017-042X,2026-07-13T11:59:32.059104,15.06451798,.0013601,97.4090,354.8325,28.6821,331.5152,0,U,42846,999,49102,.99805E-4,.1415E-4,0
CORVUS BC1,2017-042Y,2026-07-13T10:11:57.361344,15.06614889,.0011784,97.4115,355.5916,6.7633,353.3752,0,U,42847,999,49104,.76175E-4,.107E-4,0
MAKERSAT 0,2017-073D,2026-07-12T21:44:39.666624,15.32952290,.01053353,97.4593,76.6362,180.4050,179.7125,0,U,43016,999,47040,.3919963E-3,.14826E-3,0
SIRION PATHFINDER-2,2018-099B,2026-07-12T22:42:56.582208,15.14767949,.00082388,97.4243,242.3930,199.6407,160.4509,0,U,43759,999,41652,.16275605E-3,.2956E-4,0
CORVUS BC4,2018-099K,2026-07-12T23:42:57.731616,15.12692886,.00064982,97.4056,236.2140,270.3916,89.6570,0,U,43767,999,41630,.15895104E-3,.2719E-4,0
